#cP2015  1 24  0  0  0.00000000      96 ORBIT IGb08 HLM  IGS
## 1828 518400.00000000   900.00000000 57046 0.0000000000000
+   31   G01G02G03G04G05G06G07G08G09G10G11G12G13G14G15G16G17
+        G18G19G20G21G22G23G24G25G27G28G29G30G31G32  0  0  0
+          0  0  0  0  0  0  0  0  0  0  0  0  0  0  0  0  0
+          0  0  0  0  0  0  0  0  0  0  0  0  0  0  0  0  0
+          0  0  0  0  0  0  0  0  0  0  0  0  0  0  0  0  0
++         2  2  2  2  2  2  2  3  2  2  2  2  2  2  2  2  2
++         2  2  2  2  2  2  2  2  2  2  2  0  2  2  0  0  0
++         0  0  0  0  0  0  0  0  0  0  0  0  0  0  0  0  0
++         0  0  0  0  0  0  0  0  0  0  0  0  0  0  0  0  0
++         0  0  0  0  0  0  0  0  0  0  0  0  0  0  0  0  0
%c G  cc GPS ccc cccc cccc cccc cccc ccccc ccccc ccccc ccccc
%c cc cc ccc ccc cccc cccc cccc cccc ccccc ccccc ccccc ccccc
%f  1.2500000  1.025000000  0.00000000000  0.000000000000000
%f  0.0000000  0.000000000  0.00000000000  0.000000000000000
%i    0    0    0    0      0      0      0      0         0
%i    0    0    0    0      0      0      0      0         0
/* FINAL ORBIT COMBINATION FROM WEIGHTED AVERAGE OF:        
/* cod emr esa gfz grg jpl mit ngs sio                      
/* REFERENCED TO IGS TIME (IGST) AND TO WEIGHTED MEAN POLE: 
/* PCV:IGS08_1822 OL/AL:FES2004  NONE     Y  ORB:CMB CLK:CMB
*  2015  1 24 18 45  0.00000000
PG01 -13271.211265  13087.673339  18806.175772     -9.818072  6  6  4 146       
PG02  13842.206843  12744.947390 -18586.249914    543.799637  6  6  5 147       
PG03 -23078.567609  13199.743138    -57.614335    168.992325  4  6  7 123       
PG04 -15477.345912   1659.271737  21196.716389     -6.137265  5  6  5 123       
PG05  20957.201099   1550.768502 -16402.968374   -288.445576  5  7  6 123       
PG06   6667.934353  23822.504825  -9700.893863     60.979013  6  7  4 158       
PG07  -7388.390760  23333.665831  -9760.228345    434.374816  7  8  6 156       
PG08 -11432.512325 -12916.971164 -20152.460659     17.250663  8 11 10 115       
PG09  -6680.906375  13768.068766 -21715.616735    -65.295470  2  6  4 131       
PG10   4940.927298  15213.080652 -21546.811217   -160.241760  7  6  7 120       
PG11 -15123.710282   6427.444761  20342.219743   -553.123696  5  4  2 119       
PG12  24155.801202 -10394.338831   2677.011208    263.918912  4  6  3 117       
PG13  22778.403235  12284.474549   5525.781100    -81.841072  7  9  6 164       
PG14 -11288.135348 -19685.267817  14152.859506     93.785686  7 10  7 162       
PG15  22173.643046   -620.393226  14750.458511   -228.261456  3  6  5 141       
PG16 -20651.930580  -2211.382764 -16830.225445   -162.252308  5  6  5 144       
PG17   9751.944122  19258.380499  15908.485868   -151.898608  6  9  5 163       
PG18   9405.534645 -19390.573372  15797.075570    374.601437  3  9  4 154       
PG19 -22954.783212  -6299.104381  12071.999255   -497.924615  5  4  6 149       
PG20 -11981.665527  19826.034127 -13138.911192    282.223737  7  9  6 153       
PG21   2900.261265 -25732.810230  -4157.978645   -409.157833  6  9  5 175       
PG22  -3590.021259 -16246.576071  20896.235078    310.793502  5  7  5 136       
PG23 -17085.877195   6028.445746 -19426.710859    -83.999340  6  7  7 145       
PG24  14162.887360  -9868.782826  20124.685883    -42.323412  5  5  5 123       
PG25  17750.016981 -17354.416056  -9306.875632      1.074695  7  6  4 106       
PG27 -23602.106949 -12119.484097   2021.783129     46.599241  4  5  7 154       
PG28  -2647.861225  16700.152712  21082.163596    414.721328  5  9  6 154       
PG29  10216.216471 -11100.793856 -21824.244150    587.924429  8  8  4 152       
PG30  -1581.167168  26473.674281    840.264503 999999.999999
PG31  -7365.038667 -22181.521901 -12146.002708    324.790218  7  8  6 179       
PG32 -23619.861715   1903.449618  11414.966713   -240.022145  4  5  4 114       
*  2015  1 24 19  0  0.00000000
PG01 -13437.248912  10851.279793  20080.324376     -9.817806  6  6  4 144       
PG02  13803.093937  14841.905424 -17066.053665    543.801750  6  7  4 153       
PG03 -23080.156722  12900.031715   2786.525825    169.013391  3  5  7 121       
PG04 -15585.371839   -837.584143  21189.904585     -6.137735  5  5  5 115       
PG05  19379.269124   2728.349743 -18091.513072   -288.441029  5  7  6 121       
PG06   6464.435807  24786.406707  -7064.401184     60.989323  6  7  4 156       
PG07  -7610.440539  22051.019423 -12261.606904    434.377978  7  7  6 149       
PG08 -11151.614746 -15145.340781 -18779.538318     17.250044  9 12 11 134       
PG09  -8862.448498  12587.514436 -21652.017251    -65.306357  2  6  5 136       
PG10   2873.078910  16371.471927 -21019.776643   -160.244526  7  7  7 125       
PG11 -15991.488521   4124.710765  20290.669469   -553.125809  4  3  3 107       
PG12  23826.247291  -9996.102841   5549.973046    263.921567  4  6  2 123       
PG13  23052.627865  12744.710240   2685.604518    -81.844723  7  9  6 166       
PG14  -9780.058828 -18897.216193  16218.823090     93.782443  7 10  7 158       
PG15  23484.765472    280.930350  12615.963411   -228.263392  3  7  5 145       
PG16 -18927.278229  -3220.401146 -18576.667311   -162.249570  5  7  5 141       
PG17   8086.741698  18404.575845  17758.448116   -151.900800  6  9  5 158       
PG18  10930.498114 -20048.668319  13778.515925    374.604084  3  9  4 155       
PG19 -23892.756550  -7141.818272   9602.336658   -497.926036  6  5  6 148       
PG20 -13253.699526  20375.237779 -10835.675761    282.227227  7  9  6 150       
PG21   3289.761258 -25029.091832  -6884.231208   -409.161674  6  9  5 178       
PG22  -1575.860829 -17408.398954  20174.484528    310.797358  5  7  5 140       
PG23 -18917.436729   4877.823455 -18049.974830    -84.001643  6  7  7 142       
PG24  14348.662670  -7511.530799  21003.222216    -42.324503  5  6  5 119       
PG25  18625.291646 -17654.447920  -6605.550219      1.072393  7  6  3 110       
PG27 -23551.509612 -12357.801250   -838.072628     46.601635  5  5  7 158       
PG28  -4640.677413  17669.014043  19868.184291    414.723730  5  9  6 152       
PG29  12306.886863  -9774.195564 -21372.462573    587.926610  8  7  4 145       
PG30  -1846.356147  26393.641341  -2010.638743 999999.999999
PG31  -7150.060954 -23454.001424  -9625.125570    324.789678  7  8  5 180       
PG32 -22439.125629    999.837187  13730.155487   -240.014392  4  5  4 107       
*  2015  1 24 19 15  0.00000000
PG01 -13728.973116   8503.135923  21006.060258     -9.817528  6  5  4 138       
PG02  13846.695441  16744.896759 -15250.024809    543.803677  6  7  4 158       
PG03 -22835.866216  12418.236068   5582.849534    169.034476  2  5  7 116       
PG04 -15810.500911  -3301.338791  20808.337309     -6.138503  5  5  5 117       
PG05  17720.717556   4083.846316 -19471.910283   -288.436394  5  6  6 119       
PG06   6284.824258  25455.553732  -4306.479452     60.999606  6  7  4 153       
PG07  -7916.645916  20509.005654 -14546.978055    434.380830  6  6  6 141       
PG08 -11008.846385 -17206.355104 -17084.093656     17.250526  9 12 11 134       
PG09 -11076.431858  11533.313540 -21216.139295    -65.317232  2  6  5 138       
PG10    925.620190  17589.543645 -20140.562749   -160.245967  7  7  6 132       
PG11 -16938.396747   1884.627523  19873.838670   -553.128725  3  3  3 104       
PG12  23247.345860  -9406.310423   8325.965277    263.924336  4  6  2 120       
PG13  23073.295729  13018.716989   -201.242558    -81.847707  7  9  6 167       
PG14  -8044.005896 -18085.107518  18011.703491     93.779359  6  9  7 153       
PG15  24604.536508   1018.922502  10266.762771   -228.265345  4  7  6 146       
PG16 -17108.862632  -4421.595541 -20008.950994   -162.246426  5  8  5 147       
PG17   6209.085910  17554.918209  19311.698721   -151.903012  6  8  5 158       
PG18  12234.439254 -20637.716923  11525.765649    374.606056  2  9  4 151       
PG19 -24626.858609  -7784.535383   6970.362677   -497.927336  6  6  6 139       
PG20 -14290.709572  20814.824466  -8347.060801    282.231013  7  9  6 144       
PG21   3745.507494 -24037.581516  -9486.526134   -409.165258  7  9  5 174       
PG22    303.210313 -18605.528763  19110.751272    310.801218  4  8  5 145       
PG23 -20645.853190   3898.454688 -16363.938968    -84.004173  6  6  6 144       
PG24  14662.035668  -5089.432020  21518.820679    -42.324412  6  6  5 124       
PG25  19226.841655 -17821.175001  -3789.761707      1.070081  6  6  3 113       
PG27 -23221.188243 -12462.546937  -3683.585560     46.604013  5  5  7 157       
PG28  -6447.530611  18673.490367  18328.379010    414.725676  4  8  5 154       
PG29  14402.367191  -8595.794676 -20551.627513    587.928528  8  6  4 141       
PG30  -2118.298773  26006.300057  -4826.834204 999999.999999
PG31  -6987.833370 -24437.877367  -6934.434935    324.788928  7  8  3 182       
PG32 -21088.453341    -83.556617  15802.711265   -240.006492  4  5  4 100       
EOF
